[{"OBJECT_NAME":"PHISAT 2","OBJECT_ID":"2024-149C","EPOCH":"2026-03-09T18:55:12.732384","MEAN_MOTION":15.29548632,"ECCENTRICITY":0.00011753,"INCLINATION":97.3806,"RA_OF_ASC_NODE":148.6498,"ARG_OF_PERICENTER":168.623,"MEAN_ANOMALY":191.5037,"EPHEMERIS_TYPE":0,"CLASSIFICATION_TYPE":"U","NORAD_CAT_ID":60470,"ELEMENT_SET_NO":999,"REV_AT_EPOCH":8679,"BSTAR":0.00031420974,"MEAN_MOTION_DOT":8.925e-5,"MEAN_MOTION_DDOT":0},{"OBJECT_NAME":"STARLINK-35394","OBJECT_ID":"2025-232U","EPOCH":"2026-03-09T12:40:25.318848","MEAN_MOTION":15.30199264,"ECCENTRICITY":0.000127,"INCLINATION":53.1578,"RA_OF_ASC_NODE":104.458,"ARG_OF_PERICENTER":93.356,"MEAN_ANOMALY":266.7586,"EPHEMERIS_TYPE":0,"CLASSIFICATION_TYPE":"U","NORAD_CAT_ID":66023,"ELEMENT_SET_NO":999,"REV_AT_EPOCH":2341,"BSTAR":0.0011406435,"MEAN_MOTION_DOT":0.00033575,"MEAN_MOTION_DDOT":0}]
